STARLETTE               
1 07646U 75010A   16097.20611105 -.00000157  00000-0 -10478-4 0  9994
2 07646  49.8248  43.0830 0205736   1.3074 358.8318 13.82300066 79401
LAGEOS 1                
1 08820U 76039A   16097.02278914  .00000016  00000-0  00000-0 0  9996
2 08820 109.8581 343.6426 0044340  19.1129 340.2378  6.38664907675619
AJISAI (EGS)            
1 16908U 86061A   16097.87906772 -.00000106  00000-0 -61924-4 0  9999
2 16908  50.0086  76.1205 0011421  63.5473 328.9805 12.44483334 17114
LAGEOS 2                
1 22195U 92070B   16097.14724619 -.00000009  00000-0  00000+0 0  9993
2 22195  52.6481 100.2678 0137610 358.8811  89.1282  6.47294270554536
STELLA                  
1 22824U 93061B   16097.21692146 -.00000031  00000-0  58397-5 0  9993
2 22824  98.7594  45.8703 0005487 231.9043 217.5688 14.27362354173673
GRACE-1                 
1 27391U 02012A   16097.17198620  .00015195  00000-0  13612-3 0  9991
2 27391  89.0008  24.1760 0008771  48.0290  69.4231 15.68141106788747
GRACE-2                 
1 27392U 02012B   16096.83170289  .00014053  00000-0  12612-3 0  9996
2 27392  89.0025  24.3022 0008918  59.8907 300.3247 15.68090294788686
LARES                   
1 38077U 12006A   16097.75913943 -.00000022  00000-0  10000-3 0  9997
2 38077  69.4941 172.1988 0010655 306.7513  53.2522 12.54930802190012
